CCSDS_OMM_VERS = 2.0
CREATION_DATE  = 
ORIGINATOR     = 

OBJECT_NAME    = ATLAS CENTAUR R/B
OBJECT_ID      = 1972-065B
CENTER_NAME    = EARTH
REF_FRAME      = TEME
TIME_SYSTEM    = UTC
MEAN_ELEMENT_THEORY = SGP/SGP4

EPOCH          = 2026-02-24T05:56:23.578368
MEAN_MOTION    = 14.77643061
ECCENTRICITY   = .0034444
INCLINATION    = 35.0026
RA_OF_ASC_NODE = 24.5254
ARG_OF_PERICENTER = 257.1905
MEAN_ANOMALY   = 102.4946

EPHEMERIS_TYPE = 0
CLASSIFICATION_TYPE = U
NORAD_CAT_ID   = 6155
ELEMENT_SET_NO = 999
REV_AT_EPOCH   = 83927
BSTAR          = .18641E-3
MEAN_MOTION_DOT = .1346E-4
MEAN_MOTION_DDOT = 0

CCSDS_OMM_VERS = 2.0
CREATION_DATE  = 
ORIGINATOR     = 

OBJECT_NAME    = SL-8 R/B
OBJECT_ID      = 1975-112B
CENTER_NAME    = EARTH
REF_FRAME      = TEME
TIME_SYSTEM    = UTC
MEAN_ELEMENT_THEORY = SGP/SGP4

EPOCH          = 2026-02-24T10:13:17.081760
MEAN_MOTION    = 14.38195156
ECCENTRICITY   = .0014775
INCLINATION    = 74.0601
RA_OF_ASC_NODE = 43.3111
ARG_OF_PERICENTER = 141.6955
MEAN_ANOMALY   = 218.5252

EPHEMERIS_TYPE = 0
CLASSIFICATION_TYPE = U
NORAD_CAT_ID   = 8459
ELEMENT_SET_NO = 999
REV_AT_EPOCH   = 62996
BSTAR          = .65944E-4
MEAN_MOTION_DOT = .174E-5
MEAN_MOTION_DDOT = 0

CCSDS_OMM_VERS = 2.0
CREATION_DATE  = 
ORIGINATOR     = 

OBJECT_NAME    = SL-3 R/B
OBJECT_ID      = 1977-057B
CENTER_NAME    = EARTH
REF_FRAME      = TEME
TIME_SYSTEM    = UTC
MEAN_ELEMENT_THEORY = SGP/SGP4

EPOCH          = 2026-02-24T10:39:31.704480
MEAN_MOTION    = 15.45073280
ECCENTRICITY   = .0006797
INCLINATION    = 97.5759
RA_OF_ASC_NODE = 226.7873
ARG_OF_PERICENTER = 339.0587
MEAN_ANOMALY   = 21.0382

EPHEMERIS_TYPE = 0
CLASSIFICATION_TYPE = U
NORAD_CAT_ID   = 10114
ELEMENT_SET_NO = 999
REV_AT_EPOCH   = 66628
BSTAR          = .26383E-3
MEAN_MOTION_DOT = .1239E-3
MEAN_MOTION_DDOT = 0

CCSDS_OMM_VERS = 2.0
CREATION_DATE  = 
ORIGINATOR     = 

OBJECT_NAME    = SEASAT 1
OBJECT_ID      = 1978-064A
CENTER_NAME    = EARTH
REF_FRAME      = TEME
TIME_SYSTEM    = UTC
MEAN_ELEMENT_THEORY = SGP/SGP4

EPOCH          = 2026-02-24T01:50:22.623072
MEAN_MOTION    = 14.46148461
ECCENTRICITY   = .00019783
INCLINATION    = 108.0142
RA_OF_ASC_NODE = 96.9328
ARG_OF_PERICENTER = 290.8814
MEAN_ANOMALY   = 69.2120

EPHEMERIS_TYPE = 0
CLASSIFICATION_TYPE = U
NORAD_CAT_ID   = 10967
ELEMENT_SET_NO = 999
REV_AT_EPOCH   = 50454
BSTAR          = .92519672E-4
MEAN_MOTION_DOT = .193E-5
MEAN_MOTION_DDOT = 0

CCSDS_OMM_VERS = 2.0
CREATION_DATE  = 
ORIGINATOR     = 

OBJECT_NAME    = SL-14 R/B
OBJECT_ID      = 1979-011B
CENTER_NAME    = EARTH
REF_FRAME      = TEME
TIME_SYSTEM    = UTC
MEAN_ELEMENT_THEORY = SGP/SGP4

EPOCH          = 2026-02-24T12:02:32.578080
MEAN_MOTION    = 14.91890969
ECCENTRICITY   = .0017608
INCLINATION    = 82.5230
RA_OF_ASC_NODE = 109.0869
ARG_OF_PERICENTER = 100.9122
MEAN_ANOMALY   = 259.4080

EPHEMERIS_TYPE = 0
CLASSIFICATION_TYPE = U
NORAD_CAT_ID   = 11267
ELEMENT_SET_NO = 999
REV_AT_EPOCH   = 52681
BSTAR          = .50439E-4
MEAN_MOTION_DOT = .537E-5
MEAN_MOTION_DDOT = 0

CCSDS_OMM_VERS = 2.0
CREATION_DATE  = 
ORIGINATOR     = 

OBJECT_NAME    = SL-8 R/B
OBJECT_ID      = 1979-089B
CENTER_NAME    = EARTH
REF_FRAME      = TEME
TIME_SYSTEM    = UTC
MEAN_ELEMENT_THEORY = SGP/SGP4

EPOCH          = 2026-02-24T11:56:51.813888
MEAN_MOTION    = 14.42341796
ECCENTRICITY   = .0017032
INCLINATION    = 74.0683
RA_OF_ASC_NODE = 115.4649
ARG_OF_PERICENTER = 289.5140
MEAN_ANOMALY   = 70.4176

EPHEMERIS_TYPE = 0
CLASSIFICATION_TYPE = U
NORAD_CAT_ID   = 11574
ELEMENT_SET_NO = 999
REV_AT_EPOCH   = 43420
BSTAR          = .80156E-4
MEAN_MOTION_DOT = .239E-5
MEAN_MOTION_DDOT = 0

CCSDS_OMM_VERS = 2.0
CREATION_DATE  = 
ORIGINATOR     = 

OBJECT_NAME    = SL-14 R/B
OBJECT_ID      = 1980-005B
CENTER_NAME    = EARTH
REF_FRAME      = TEME
TIME_SYSTEM    = UTC
MEAN_ELEMENT_THEORY = SGP/SGP4

EPOCH          = 2026-02-24T05:42:13.638240
MEAN_MOTION    = 14.90912018
ECCENTRICITY   = .0014974
INCLINATION    = 82.5166
RA_OF_ASC_NODE = 319.9942
ARG_OF_PERICENTER = 203.2035
MEAN_ANOMALY   = 156.8510

EPHEMERIS_TYPE = 0
CLASSIFICATION_TYPE = U
NORAD_CAT_ID   = 11672
ELEMENT_SET_NO = 999
REV_AT_EPOCH   = 47448
BSTAR          = .59362E-4
MEAN_MOTION_DOT = .612E-5
MEAN_MOTION_DDOT = 0

CCSDS_OMM_VERS = 2.0
CREATION_DATE  = 
ORIGINATOR     = 

OBJECT_NAME    = SL-8 R/B
OBJECT_ID      = 1981-003B
CENTER_NAME    = EARTH
REF_FRAME      = TEME
TIME_SYSTEM    = UTC
MEAN_ELEMENT_THEORY = SGP/SGP4

EPOCH          = 2026-02-24T10:07:13.943424
MEAN_MOTION    = 15.10433619
ECCENTRICITY   = .0262694
INCLINATION    = 82.9396
RA_OF_ASC_NODE = 302.2877
ARG_OF_PERICENTER = 224.7615
MEAN_ANOMALY   = 133.2156

EPHEMERIS_TYPE = 0
CLASSIFICATION_TYPE = U
NORAD_CAT_ID   = 12139
ELEMENT_SET_NO = 999
REV_AT_EPOCH   = 31267
BSTAR          = .4226E-3
MEAN_MOTION_DOT = .16199E-3
MEAN_MOTION_DDOT = 0

CCSDS_OMM_VERS = 2.0
CREATION_DATE  = 
ORIGINATOR     = 

OBJECT_NAME    = SL-3 R/B
OBJECT_ID      = 1981-046B
CENTER_NAME    = EARTH
REF_FRAME      = TEME
TIME_SYSTEM    = UTC
MEAN_ELEMENT_THEORY = SGP/SGP4

EPOCH          = 2026-02-24T11:31:08.017824
MEAN_MOTION    = 15.41606798
ECCENTRICITY   = .0020565
INCLINATION    = 81.2322
RA_OF_ASC_NODE = 305.6007
ARG_OF_PERICENTER = 66.2796
MEAN_ANOMALY   = 294.0602

EPHEMERIS_TYPE = 0
CLASSIFICATION_TYPE = U
NORAD_CAT_ID   = 12465
ELEMENT_SET_NO = 999
REV_AT_EPOCH   = 43639
BSTAR          = .28213E-3
MEAN_MOTION_DOT = .11992E-3
MEAN_MOTION_DDOT = 0

CCSDS_OMM_VERS = 2.0
CREATION_DATE  = 
ORIGINATOR     = 

OBJECT_NAME    = SL-3 R/B
OBJECT_ID      = 1981-103B
CENTER_NAME    = EARTH
REF_FRAME      = TEME
TIME_SYSTEM    = UTC
MEAN_ELEMENT_THEORY = SGP/SGP4

EPOCH          = 2026-02-24T11:39:38.066400
MEAN_MOTION    = 15.21195767
ECCENTRICITY   = .0012822
INCLINATION    = 81.1570
RA_OF_ASC_NODE = 228.9204
ARG_OF_PERICENTER = 333.7545
MEAN_ANOMALY   = 26.3035

EPHEMERIS_TYPE = 0
CLASSIFICATION_TYPE = U
NORAD_CAT_ID   = 12904
ELEMENT_SET_NO = 999
REV_AT_EPOCH   = 97122
BSTAR          = .26904E-3
MEAN_MOTION_DOT = .6036E-4
MEAN_MOTION_DDOT = 0

CCSDS_OMM_VERS = 2.0
CREATION_DATE  = 
ORIGINATOR     = 

OBJECT_NAME    = SL-3 R/B
OBJECT_ID      = 1982-013B
CENTER_NAME    = EARTH
REF_FRAME      = TEME
TIME_SYSTEM    = UTC
MEAN_ELEMENT_THEORY = SGP/SGP4

EPOCH          = 2026-02-24T10:24:39.812832
MEAN_MOTION    = 15.21855594
ECCENTRICITY   = .0021956
INCLINATION    = 81.1758
RA_OF_ASC_NODE = 176.3017
ARG_OF_PERICENTER = 222.6871
MEAN_ANOMALY   = 137.2656

EPHEMERIS_TYPE = 0
CLASSIFICATION_TYPE = U
NORAD_CAT_ID   = 13068
ELEMENT_SET_NO = 999
REV_AT_EPOCH   = 40233
BSTAR          = .21168E-3
MEAN_MOTION_DOT = .4868E-4
MEAN_MOTION_DDOT = 0

CCSDS_OMM_VERS = 2.0
CREATION_DATE  = 
ORIGINATOR     = 

OBJECT_NAME    = SL-3 R/B
OBJECT_ID      = 1982-039B
CENTER_NAME    = EARTH
REF_FRAME      = TEME
TIME_SYSTEM    = UTC
MEAN_ELEMENT_THEORY = SGP/SGP4

EPOCH          = 2026-02-24T11:17:16.061856
MEAN_MOTION    = 15.09994549
ECCENTRICITY   = .0029959
INCLINATION    = 81.1588
RA_OF_ASC_NODE = 231.2013
ARG_OF_PERICENTER = 7.6382
MEAN_ANOMALY   = 352.5293

EPHEMERIS_TYPE = 0
CLASSIFICATION_TYPE = U
NORAD_CAT_ID   = 13154
ELEMENT_SET_NO = 999
REV_AT_EPOCH   = 37964
BSTAR          = .15236E-3
MEAN_MOTION_DOT = .2523E-4
MEAN_MOTION_DDOT = 0

