ATLAS CENTAUR R/B       
1 06155U 72065B   26055.24749512  .00001346  00000+0  18641-3 0  9995
2 06155  35.0026  24.5254 0034444 257.1905 102.4946 14.77643061839279
SL-8 R/B                
1 08459U 75112B   26055.42589215  .00000174  00000+0  65944-4 0  9999
2 08459  74.0601  43.3111 0014775 141.6955 218.5252 14.38195156629964
SL-3 R/B                
1 10114U 77057B   26055.44411695  .00012390  00000+0  26383-3 0  9994
2 10114  97.5759 226.7873 0006797 339.0587  21.0382 15.45073280666289
SEASAT 1                
1 10967U 78064A   26055.07665073  .00000193  00000+0  92520-4 0  9994
2 10967 108.0142  96.9328 0001978 290.8814  69.2120 14.46148461504542
SL-14 R/B               
1 11267U 79011B   26055.50176595  .00000537  00000+0  50439-4 0  9990
2 11267  82.5230 109.0869 0017608 100.9122 259.4080 14.91890969526815
SL-8 R/B                
1 11574U 79089B   26055.49782192  .00000239  00000+0  80156-4 0  9998
2 11574  74.0683 115.4649 0017032 289.5140  70.4176 14.42341796434209
SL-14 R/B               
1 11672U 80005B   26055.23765785  .00000612  00000+0  59362-4 0  9998
2 11672  82.5166 319.9942 0014974 203.2035 156.8510 14.90912018474482
SL-8 R/B                
1 12139U 81003B   26055.42168916  .00016199  00000+0  42260-3 0  9995
2 12139  82.9396 302.2877 0262694 224.7615 133.2156 15.10433619312673
SL-3 R/B                
1 12465U 81046B   26055.47995391  .00011992  00000+0  28213-3 0  9992
2 12465  81.2322 305.6007 0020565  66.2796 294.0602 15.41606798436398
SL-3 R/B                
1 12904U 81103B   26055.48585725  .00006036  00000+0  26904-3 0  9999
2 12904  81.1570 228.9204 0012822 333.7545  26.3035 15.21195767971226
SL-3 R/B                
1 13068U 82013B   26055.43379413  .00004868  00000+0  21168-3 0  9990
2 13068  81.1758 176.3017 0021956 222.6871 137.2656 15.21855594402333
SL-3 R/B                
1 13154U 82039B   26055.47032479  .00002523  00000+0  15236-3 0  9991
2 13154  81.1588 231.2013 0029959   7.6382 352.5293 15.09994549379642
